{"fetched_at":"2026-03-29T02:12:04Z","count":15717,"tles":[{"name":"STARLINK-35817","line1":"1 66357U 25254K   26087.56036211  .00026490  00000+0  90390-3 0  9996","line2":"2 66357  53.1596 144.8884 0001277  79.8011 280.3134 15.30179502 21869","category":"Starlink"}]}